[
    {
        "Altitude(m)": 607895.8010101389,
        "Argument of Periapsis(deg)": 0.0,
        "Eccentricity": 0.0,
        "Inclination(deg)": 60.0,
        "Latitude(deg)": 40.99829523897211,
        "Longitude(deg)": -144.9112704030708,
        "Mean Anomaly(deg)": 130.90909999999997,
        "RAAN(deg)": 165.0,
        "Satellite Name": "Test1 734",
        "Satellite Number": 734,
        "Semi-Major Axis(m)": 6980739.136638005,
        "Time(s)": 0
    },
    {
        "Altitude(m)": 607795.1135837198,
        "Argument of Periapsis(deg)": 0.00010418945913296404,
        "Eccentricity": 0.0,
        "Inclination(deg)": 60.0,
        "Latitude(deg)": 40.530618651455015,
        "Longitude(deg)": -144.4146782728198,
        "Mean Anomaly(deg)": 131.5292061454618,
        "RAAN(deg)": 164.99957995086024,
        "Satellite Name": "Test1 734",
        "Satellite Number": 734,
        "Semi-Major Axis(m)": 6980739.136638005,
        "Time(s)": 10
    }
]